ONEWEB-0327             
1 49196C 21083L   23120.83869213 -.00001504  00000-0 -38204-2 0  1208
2 49196  87.9299 202.6580 0001412 110.2927 322.5976 13.18693283    17
ONEWEB-0328             
1 49197C 21083M   23120.82376573 -.00001339  00000-0 -36717-2 0  1203
2 49197  87.9099 187.5355 0001986  97.5354  32.5456 13.13468122    12
ONEWEB-0331             
1 49198C 21083N   23120.79635832 -.00000833  00000-0 -21152-2 0  1201
2 49198  87.9292 202.7111 0001767 105.8179  41.0128 13.18697652    11
ONEWEB-0333             
1 49199C 21083P   23120.72794396  .00000481  00000-0  13182-2 0  1207
2 49199  87.9102 187.5555 0002352 105.7439 316.5903 13.13473137    19
ONEWEB-0334             
1 49200C 21083Q   23120.66508517 -.00003071  00000-0 -75631-2 0  1208
2 49200  87.9238 142.1295 0002799 107.7142  23.1956 13.20774529    14
ONEWEB-0335             
1 49201C 21083R   23120.49845322  .00002631  00000-0  72130-2 0  1208
2 49201  87.9103 187.5919 0002025  96.1032 341.5755 13.13467115    19
ONEWEB-0336             
1 49202C 21083S   23120.61719164  .00001717  00000-0  47085-2 0  1202
2 49202  87.9101 187.5676 0002277 104.4706 324.4684 13.13467024    18
ONEWEB-0337             
1 49203C 21083T   23120.71542081  .00000288  00000-0  78951-3 0  1205
2 49203  87.9108 187.5524 0002065  97.6952 325.3514 13.13473045    11
ONEWEB-0338             
1 49204C 21083U   23120.67132360 -.00002652  00000-0 -65294-2 0  1200
2 49204  87.9200 142.0946 0002789  94.1885  30.3614 13.20774798    10
ONEWEB-0339             
1 49205C 21083V   23120.57584905  .00003546  00000-0  97217-2 0  1207
2 49205  87.9106 187.5778 0002445  93.8632  34.5867 13.13467678    12
ONEWEB-0340             
1 49206C 21083W   23120.85261990 -.00001618  00000-0 -41092-2 0  1205
2 49206  87.9299 202.6918 0001908 102.1795  21.6383 13.18688226    17
ONEWEB-0341             
1 49207C 21083X   23120.63765462  .00004099  00000-0  10409-1 0  1206
2 49207  87.9293 202.6645 0002308  80.2628  63.6729 13.18683477    18
ONEWEB-0342             
1 49208C 21083Y   23120.73767777 -.00001695  00000-0 -41729-2 0  1200
2 49208  87.9237 142.1196 0002383  95.0058 320.8853 13.20774723    14
ONEWEB-0343             
1 49209C 21083Z   23120.63317545  .00004111  00000-0  10440-1 0  1203
2 49209  87.9295 202.7019 0002730  80.3043  62.3365 13.18683108    12
ONEWEB-0344             
1 49210C 21083AA  23120.83069859 -.00002601  00000-0 -71324-2 0  1202
2 49210  87.9095 187.5324 0001793 101.3432 316.5086 13.13468677    16
ONEWEB-0345             
1 49211C 21083AB  23120.70676340 -.00000931  00000-0 -25528-2 0  1207
2 49211  87.9105 187.5431 0001654  84.3308  22.8183 13.13473277    13
ONEWEB-0346             
1 49212C 21083AC  23120.47933286  .00000054  00000-0  13635-3 0  1208
2 49212  87.9291 202.7241 0001544 107.5719 345.2635 13.18685974    19
ONEWEB-0348             
1 49213C 21083AD  23120.66858054 -.00002799  00000-0 -68924-2 0  1209
2 49213  87.9236 142.0933 0001678  91.5034  31.9831 13.20776985    16
ONEWEB-0350             
1 49214C 21083AE  23120.63211062  .00002223  00000-0  60956-2 0  1206
2 49214  87.9109 187.5850 0001804  91.4740 337.8766 13.13469492    11
ONEWEB-0351             
1 49215C 21083AF  23120.72135832 -.00002796  00000-0 -68849-2 0  1203
2 49215  87.9209 142.1002 0002506  93.3791 316.9683 13.20772428    16
ONEWEB-0352             
1 49216C 21083AG  23120.83941387 -.00002924  00000-0 -80175-2 0  1205
2 49216  87.9100 187.5281 0002510  99.5743 319.3371 13.13471135    13
ONEWEB-0354             
1 49217C 21083AH  23120.61507360 -.00000583  00000-0 -14359-2 0  1201
2 49217  87.9238 142.0823 0002133  84.7187  60.4941 13.20773793    13
ONEWEB-0355             
1 49218C 21083AJ  23120.49184442  .00002267  00000-0  62157-2 0  1208
2 49218  87.9105 187.5979 0002299  94.7989 331.6855 13.13470926    18
ONEWEB-0357             
1 49219C 21083AK  23120.61161295 -.00000622  00000-0 -15328-2 0  1207
2 49219  87.9219 142.1188 0001975  91.0447  49.7649 13.20773986    11
ONEWEB-0332             
1 49279C 21090A   23120.50397406  .00004091  00000-0  11049-1 0  1201
2 49279  87.9058 157.3127 0002653  98.3776  40.3431 13.14501155    14
ONEWEB-0347             
1 49280C 21090B   23120.74462222 -.00001876  00000-0 -46185-2 0  1208
2 49280  87.9188 142.0456 0002384 107.6480 353.2141 13.20776156    19
ONEWEB-0349             
1 49281C 21090C   23120.78074488 -.00000087  00000-0 -21407-3 0  1200
2 49281  87.9227 142.0616 0001801  86.7567  29.8455 13.20769791    19
ONEWEB-0353             
1 49282C 21090D   23120.64944860 -.00000642  00000-0 -17333-2 0  1205
2 49282  87.9065 157.2584 0002455 102.7447  44.0913 13.14510272    13
ONEWEB-0356             
1 49283C 21090E   23120.77794396 -.00000020  00000-0 -49503-4 0  1203
2 49283  87.9230 142.0663 0001290 117.0774 358.1552 13.20770806    12
ONEWEB-0358             
1 49284C 21090F   23120.50677498  .00001441  00000-0  35498-2 0  1200
2 49284  87.9232 142.0972 0001541  88.9194  33.7424 13.20769550    17
ONEWEB-0359             
1 49285C 21090G   23120.50434442  .00001470  00000-0  36206-2 0  1201
2 49285  87.9231 142.1344 0002142  78.8625  44.1724 13.20770997    12
ONEWEB-0360             
1 49286C 21090H   23120.49389304  .00001969  00000-0  48487-2 0  1203
2 49286  87.9233 142.1269 0001988  92.5278  28.9417 13.20772683    18
ONEWEB-0361             
1 49287C 21090J   23120.77552498  .00000022  00000-0  55043-4 0  1208
2 49287  87.9232 142.0677 0001887  96.3034  19.4178 13.20771216    10
ONEWEB-0362             
1 49288C 21090K   23120.87168238 -.00001241  00000-0 -31036-2 0  1205
2 49288  87.9303 172.3810 0002242 106.3613 309.2222 13.19725166    17
ONEWEB-0363             
1 49289C 21090L   23120.77619627 -.00001100  00000-0 -27086-2 0  1202
2 49289  87.9229 142.0673 0001718  95.6177 299.4117 13.20772513    11
ONEWEB-0364             
1 49290C 21090M   23120.61021249 -.00000771  00000-0 -18981-2 0  1201
2 49290  87.9176 142.1029 0002171 100.2443  46.0120 13.20772281    15
ONEWEB-0365             
1 49291C 21090N   23120.80396991 -.00002864  00000-0 -71624-2 0  1200
2 49291  87.9303 172.3835 0002261  96.5028 317.5831 13.19726105    11
ONEWEB-0366             
1 49292C 21090P   23120.64566388 -.00000875  00000-0 -23619-2 0  1203
2 49292  87.9068 157.2626 0002220 103.4668  45.4411 13.14514519    13
ONEWEB-0367             
1 49293C 21090Q   23120.84984211  .00001422  00000-0  35019-2 0  1209
2 49293  87.9226 142.0498 0002224 101.9759 294.9484 13.20764743    11
ONEWEB-0368             
1 49294C 21090R   23120.61821017 -.00000556  00000-0 -13696-2 0  1205
2 49294  87.9169 142.1174 0002085 114.4805  33.6506 13.20774720    15
ONEWEB-0369             
1 49295C 21090S   23120.87341435 -.00001327  00000-0 -33178-2 0  1209
2 49295  87.9299 172.3679 0002188 105.1951 298.6812 13.19720771    16
ONEWEB-0370             
1 49296C 21090T   23120.49671711  .00001791  00000-0  44113-2 0  1205
2 49296  87.9231 142.1217 0001941  97.0304  25.8233 13.20771099    11
ONEWEB-0371             
1 49297C 21090U   23120.88213380 -.00001014  00000-0 -25369-2 0  1205
2 49297  87.9303 172.3542 0002258 101.1462 304.0996 13.19727835    17
ONEWEB-0372             
1 49298C 21090V   23120.63699488 -.00001798  00000-0 -44289-2 0  1207
2 49298  87.9226 142.0920 0002527  94.9586  22.4954 13.20769820    18
ONEWEB-0373             
1 49299C 21090W   23120.72757360 -.00002541  00000-0 -62570-2 0  1202
2 49299  87.9181 142.0578 0001812 105.4994 310.3335 13.20775573    19
ONEWEB-0374             
1 49300C 21090X   23120.70015461 -.00002800  00000-0 -75604-2 0  1202
2 49300  87.9061 157.2478 0002110  99.4570   7.1453 13.14509607    18
ONEWEB-0375             
1 49301C 21090Y   23120.71091850 -.00002854  00000-0 -70279-2 0  1202
2 49301  87.9229 142.0848 0001290  98.2136 298.5866 13.20775051    10
ONEWEB-0376             
1 49302C 21090Z   23120.80572174 -.00002807  00000-0 -70193-2 0  1209
2 49302  87.9304 172.3833 0002465 101.2683 311.1097 13.19727151    16
ONEWEB-0377             
1 49303C 21090AA  23120.64912451 -.00002789  00000-0 -68676-2 0  1200
2 49303  87.9229 142.0923 0002186  87.8819  27.2700 13.20774947    10
ONEWEB-0378             
1 49304C 21090AB  23120.53175183  .00006587  00000-0  16222-1 0  1209
2 49304  87.9231 142.1102 0001975 100.9991 350.3796 13.20756246    14
ONEWEB-0379             
1 49305C 21090AC  23120.69841852 -.00003031  00000-0 -81853-2 0  1206
2 49305  87.9058 157.2480 0002174 101.1073  27.3600 13.14507823    17
ONEWEB-0380             
1 49306C 21090AD  23120.66095322 -.00000969  00000-0 -24237-2 0  1207
2 49306  87.9302 172.4098 0002130  92.6227  12.3464 13.19726633    10
ONEWEB-0381             
1 49307C 21090AE  23120.76824488 -.00000727  00000-0 -17906-2 0  1209
2 49307  87.9180 142.0359 0001911  92.3243 300.8470 13.20767259    12
ONEWEB-0382             
1 49308C 21090AF  23120.62136988 -.00000461  00000-0 -11344-2 0  1201
2 49308  87.9230 142.0939 0001648  99.1996  15.9771 13.20772006    14
ONEWEB-0383             
1 49309C 21090AG  23120.76334906 -.00002859  00000-0 -77222-2 0  1207
2 49309  87.9053 157.2190 0002091 105.3607   0.1978 13.14505030    16
ONEWEB-0384             
1 49310C 21090AH  23120.61925183 -.00000358  00000-0 -88215-3 0  1203
2 49310  87.9231 142.0918 0001440 109.9367   7.1970 13.20772835    11
ONEWEB-0385             
1 49311C 21090AJ  23120.68209906 -.00001105  00000-0 -27220-2 0  1208
2 49311  87.9232 142.0814 0001662  98.2411 341.5435 13.20772611    17
ONEWEB-0386             
1 49312C 21090AK  23120.85083748  .00002112  00000-0  52007-2 0  1200
2 49312  87.9232 142.0554 0001736 104.1170 333.5441 13.20769555    11
ONEWEB-0387             
1 49313C 21090AL  23120.61646248 -.00000267  00000-0 -65820-3 0  1204
2 49313  87.9255 142.1215 0001830  92.5931  23.3584 13.20777385    14
